{"type": "FeatureCollection", "features": [ {"type": "Feature", "properties": {"norad_id": 31459, "name": "FENGYUN 1C DEB", "group": "fengyun-1c-debris", "lat": 6.918989182444958, "lon": -103.95542277083823, "alt_km": 778.0346265929584, "timestamp": "2025-12-14T20:40:32.054258+00:00", "meta": {"OBJECT_NAME": "FENGYUN 1C DEB", "OBJECT_ID": "1999-025BUX", "EPOCH": "2025-12-12T23:44:38.705568", "MEAN_MOTION": 14.44083824, "ECCENTRICITY": 0.00940456, "INCLINATION": 98.1765, "RA_OF_ASC_NODE": 255.2445, "ARG_OF_PERICENTER": 130.906, "MEAN_ANOMALY": 230.0325, "EPHEMERIS_TYPE": 0, "CLASSIFICATION_TYPE": "U", "NORAD_CAT_ID": 31459, "ELEMENT_SET_NO": 999, "REV_AT_EPOCH": 64561, "BSTAR": 0.0020176648, "MEAN_MOTION_DOT": 7.253e-05, "MEAN_MOTION_DDOT": 0}, "tle": {"line1": "1 31459U 99025BUX 25346.98933687  .00007253  00000+0  20177-2 0  9995", "line2": "2 31459  98.1765 255.2445 0094045 130.9060 230.0325 14.44083824645613"}}, "geometry": {"type": "Point", "coordinates": [-103.95542277083823, 6.918989182444958]}}, {"type": "Feature", "properties": {"norad_id": 31462, "name": "FENGYUN 1C DEB", "group": "fengyun-1c-debris", "lat": -47.29432939474573, "lon": 16.739632776209763, "alt_km": 865.1264207478325, "timestamp": "2025-12-14T20:40:32.054270+00:00", "meta": {"OBJECT_NAME": "FENGYUN 1C DEB", "OBJECT_ID": "1999-025BVA", "EPOCH": "2025-12-14T00:38:48.765984", "MEAN_MOTION": 14.1301232, "ECCENTRICITY": 0.00321413, "INCLINATION": 98.6903, "RA_OF_ASC_NODE": 6.391, "ARG_OF_PERICENTER": 200.7105, "MEAN_ANOMALY": 188.2727, "EPHEMERIS_TYPE": 0, "CLASSIFICATION_TYPE": "U", "NORAD_CAT_ID": 31462, "ELEMENT_SET_NO": 999, "REV_AT_EPOCH": 95874, "BSTAR": 0.00041685384, "MEAN_MOTION_DOT": 7.39e-06, "MEAN_MOTION_DDOT": 0}, "tle": {"line1": "1 31462U 99025BVA 25348.02695331  .00000739  00000+0  41685-3 0  9997", "line2": "2 31462  98.6903   6.3910 0032141 200.7105 188.2727 14.13012320958743"}}, "geometry": {"type": "Point", "coordinates": [16.739632776209763, -47.29432939474573]}}, {"type": "Feature", "properties": {"norad_id": 31463, "name": "FENGYUN 1C DEB", "group": "fengyun-1c-debris", "lat": 75.04157911721053, "lon": -172.55549216095935, "alt_km": 702.021023804361, "timestamp": "2025-12-14T20:40:32.054285+00:00", "meta": {"OBJECT_NAME": "FENGYUN 1C DEB", "OBJECT_ID": "1999-025BVB", "EPOCH": "2025-12-13T04:06:46.916640", "MEAN_MOTION": 14.36949028, "ECCENTRICITY": 0.02137304, "INCLINATION": 99.0817, "RA_OF_ASC_NODE": 328.8853, "ARG_OF_PERICENTER": 38.5961, "MEAN_ANOMALY": 323.0286, "EPHEMERIS_TYPE": 0, "CLASSIFICATION_TYPE": "U", "NORAD_CAT_ID": 31463, "ELEMENT_SET_NO": 999, "REV_AT_EPOCH": 64726, "BSTAR": 0.00082240505, "MEAN_MOTION_DOT": 3.112e-05, "MEAN_MOTION_DDOT": 0}, "tle": {"line1": "1 31463U 99025BVB 25347.17137635  .00003112  00000+0  82241-3 0  9992", "line2": "2 31463  99.0817 328.8853 0213730  38.5961 323.0286 14.36949028647263"}}, "geometry": {"type": "Point", "coordinates": [-172.55549216095935, 75.04157911721053]}}, {"type": "Feature", "properties": {"norad_id": 31464, "name": "FENGYUN 1C DEB", "group": "fengyun-1c-debris", "lat": -69.51040364015093, "lon": -168.8706230752379, "alt_km": 828.0564014926558, "timestamp": "2025-12-14T20:40:32.054296+00:00", "meta": {"OBJECT_NAME": "FENGYUN 1C DEB", "OBJECT_ID": "1999-025BVC", "EPOCH": "2025-12-08T09:04:42.155616", "MEAN_MOTION": 14.12469302, "ECCENTRICITY": 0.00430438, "INCLINATION": 98.7953, "RA_OF_ASC_NODE": 29.243, "ARG_OF_PERICENTER": 254.8356, "MEAN_ANOMALY": 168.2264, "EPHEMERIS_TYPE": 0, "CLASSIFICATION_TYPE": "U", "NORAD_CAT_ID": 31464, "ELEMENT_SET_NO": 999, "REV_AT_EPOCH": 94618, "BSTAR": 0.00054133303, "MEAN_MOTION_DOT": 9.64e-06, "MEAN_MOTION_DDOT": 0}, "tle": {"line1": "1 31464U 99025BVC 25342.37826569  .00000964  00000+0  54133-3 0  9992", "line2": "2 31464  98.7953  29.2430 0043043 254.8356 168.2264 14.12469302946187"}}, "geometry": {"type": "Point", "coordinates": [-168.8706230752379, -69.51040364015093]}}, {"type": "Feature", "properties": {"norad_id": 31466, "name": "FENGYUN 1C DEB", "group": "fengyun-1c-debris", "lat": -7.253337501222808, "lon": 97.69996750707037, "alt_km": 922.1044630688048, "timestamp": "2025-12-14T20:40:32.054308+00:00", "meta": {"OBJECT_NAME": "FENGYUN 1C DEB", "OBJECT_ID": "1999-025BVE", "EPOCH": "2025-12-10T12:30:21.903840", "MEAN_MOTION": 14.18513848, "ECCENTRICITY": 0.0299283, "INCLINATION": 99.0869, "RA_OF_ASC_NODE": 274.4154, "ARG_OF_PERICENTER": 315.1906, "MEAN_ANOMALY": 42.5446, "EPHEMERIS_TYPE": 0, "CLASSIFICATION_TYPE": "U", "NORAD_CAT_ID": 31466, "ELEMENT_SET_NO": 999, "REV_AT_EPOCH": 96297, "BSTAR": 0.00040872, "MEAN_MOTION_DOT": 1.262e-05, "MEAN_MOTION_DDOT": 0}, "tle": {"line1": "1 31466U 99025BVE 25344.52108685  .00001262  00000+0  40872-3 0  9992", "line2": "2 31466  99.0869 274.4154 0299283 315.1906  42.5446 14.18513848962979"}}, "geometry": {"type": "Point", "coordinates": [97.69996750707037, -7.253337501222808]}}, {"type": "Feature", "properties": {"norad_id": 31468, "name": "FENGYUN 1C DEB", "group": "fengyun-1c-debris", "lat": 54.66294084044577, "lon": 176.57758453677513, "alt_km": 634.8849088568986, "timestamp": "2025-12-14T20:40:32.054318+00:00", "meta": {"OBJECT_NAME": "FENGYUN 1C DEB", "OBJECT_ID": "1999-025BVG", "EPOCH": "2025-12-13T05:55:06.803328", "MEAN_MOTION": 14.46592073, "ECCENTRICITY": 0.01664775, "INCLINATION": 98.1684, "RA_OF_ASC_NODE": 343.3318, "ARG_OF_PERICENTER": 165.2099, "MEAN_ANOMALY": 195.4051, "EPHEMERIS_TYPE": 0, "CLASSIFICATION_TYPE": "U", "NORAD_CAT_ID": 31468, "ELEMENT_SET_NO": 999, "REV_AT_EPOCH": 67379, "BSTAR": 0.0005964505, "MEAN_MOTION_DOT": 2.509e-05, "MEAN_MOTION_DDOT": 0}, "tle": {"line1": "1 31468U 99025BVG 25347.24660652  .00002509  00000+0  59645-3 0  9996", "line2": "2 31468  98.1684 343.3318 0166477 165.2099 195.4051 14.46592073673796"}}, "geometry": {"type": "Point", "coordinates": [176.57758453677513, 54.66294084044577]}}, {"type": "Feature", "properties": {"norad_id": 31473, "name": "FENGYUN 1C DEB", "group": "fengyun-1c-debris", "lat": 32.74450556959406, "lon": -152.56632060217143, "alt_km": 824.8597732178805, "timestamp": "2025-12-14T20:40:32.054328+00:00", "meta": {"OBJECT_NAME": "FENGYUN 1C DEB", "OBJECT_ID": "1999-025BVM", "EPOCH": "2025-12-14T08:17:37.485600", "MEAN_MOTION": 14.2980163, "ECCENTRICITY": 0.00647893, "INCLINATION": 98.5463, "RA_OF_ASC_NODE": 21.378, "ARG_OF_PERICENTER": 10.0902, "MEAN_ANOMALY": 2.1406, "EPHEMERIS_TYPE": 0, "CLASSIFICATION_TYPE": "U", "NORAD_CAT_ID": 31473, "ELEMENT_SET_NO": 999, "REV_AT_EPOCH": 69544, "BSTAR": 0.0015453873, "MEAN_MOTION_DOT": 4.021e-05, "MEAN_MOTION_DDOT": 0}, "tle": {"line1": "1 31473U 99025BVM 25348.34557275  .00004021  00000+0  15454-2 0  9990", "line2": "2 31473  98.5463  21.3780 0064789  10.0902   2.1406 14.29801630695447"}}, "geometry": {"type": "Point", "coordinates": [-152.56632060217143, 32.74450556959406]}}, {"type": "Feature", "properties": {"norad_id": 31474, "name": "FENGYUN 1C DEB", "group": "fengyun-1c-debris", "lat": -72.48006070847521, "lon": 65.43747693021963, "alt_km": 859.4368697223408, "timestamp": "2025-12-14T20:40:32.054337+00:00", "meta": {"OBJECT_NAME": "FENGYUN 1C DEB", "OBJECT_ID": "1999-025BVN", "EPOCH": "2025-12-12T23:04:10.589088", "MEAN_MOTION": 14.10595192, "ECCENTRICITY": 0.00718782, "INCLINATION": 99.145, "RA_OF_ASC_NODE": 32.8233, "ARG_OF_PERICENTER": 205.5886, "MEAN_ANOMALY": 154.172, "EPHEMERIS_TYPE": 0, "CLASSIFICATION_TYPE": "U", "NORAD_CAT_ID": 31474, "ELEMENT_SET_NO": 999, "REV_AT_EPOCH": 94973, "BSTAR": 0.0018539193, "MEAN_MOTION_DOT": 3.342e-05, "MEAN_MOTION_DDOT": 0}, "tle": {"line1": "1 31474U 99025BVN 25346.96123367  .00003342  00000+0  18539-2 0  9990", "line2": "2 31474  99.1450  32.8233 0071878 205.5886 154.1720 14.10595192949734"}}, "geometry": {"type": "Point", "coordinates": [65.43747693021963, -72.48006070847521]}}, {"type": "Feature", "properties": {"norad_id": 31475, "name": "FENGYUN 1C DEB", "group": "fengyun-1c-debris", "lat": 81.04308796249967, "lon": 150.65967143871293, "alt_km": 608.5294557175775, "timestamp": "2025-12-14T20:40:32.054348+00:00", "meta": {"OBJECT_NAME": "FENGYUN 1C DEB", "OBJECT_ID": "1999-025BVP", "EPOCH": "2025-12-13T10:52:32.995488", "MEAN_MOTION": 14.38207417, "ECCENTRICITY": 0.02117047, "INCLINATION": 98.939, "RA_OF_ASC_NODE": 236.1772, "ARG_OF_PERICENTER": 105.0184, "MEAN_ANOMALY": 257.4537, "EPHEMERIS_TYPE": 0, "CLASSIFICATION_TYPE": "U", "NORAD_CAT_ID": 31475, "ELEMENT_SET_NO": 999, "REV_AT_EPOCH": 96089, "BSTAR": 0.00098652399, "MEAN_MOTION_DOT": 3.836e-05, "MEAN_MOTION_DDOT": 0}, "tle": {"line1": "1 31475U 99025BVP 25347.45315967  .00003836  00000+0  98652-3 0  9998", "line2": "2 31475  98.9390 236.1772 0211704 105.0184 257.4537 14.38207417960894"}}, "geometry": {"type": "Point", "coordinates": [150.65967143871293, 81.04308796249967]}}, {"type": "Feature", "properties": {"norad_id": 31476, "name": "FENGYUN 1C DEB", "group": "fengyun-1c-debris", "lat": 56.70794246254519, "lon": -103.82244952452893, "alt_km": 784.980591486762, "timestamp": "2025-12-14T20:40:32.054358+00:00", "meta": {"OBJECT_NAME": "FENGYUN 1C DEB", "OBJECT_ID": "1999-025BVQ", "EPOCH": "2025-12-14T03:12:57.785760", "MEAN_MOTION": 14.22114532, "ECCENTRICITY": 0.00532615, "INCLINATION": 98.8966, "RA_OF_ASC_NODE": 61.6443, "ARG_OF_PERICENTER": 168.1157, "MEAN_ANOMALY": 192.129, "EPHEMERIS_TYPE": 0, "CLASSIFICATION_TYPE": "U", "NORAD_CAT_ID": 31476, "ELEMENT_SET_NO": 999, "REV_AT_EPOCH": 95719, "BSTAR": 0.0018761171, "MEAN_MOTION_DOT": 4.172e-05, "MEAN_MOTION_DDOT": 0}, "tle": {"line1": "1 31476U 99025BVQ 25348.13400215  .00004172  00000+0  18761-2 0  9992", "line2": "2 31476  98.8966  61.6443 0053261 168.1157 192.1290 14.22114532957199"}}, "geometry": {"type": "Point", "coordinates": [-103.82244952452893, 56.70794246254519]}}]}